[{"OBJECT_NAME":"STARLINK-35517","OBJECT_ID":"2025-245L","EPOCH":"2026-03-09T21:35:07.028160","MEAN_MOTION":15.30203063,"ECCENTRICITY":0.00011293,"INCLINATION":53.1572,"RA_OF_ASC_NODE":282.5658,"ARG_OF_PERICENTER":125.5948,"MEAN_ANOMALY":234.5158,"EPHEMERIS_TYPE":0,"CLASSIFICATION_TYPE":"U","NORAD_CAT_ID":66244,"ELEMENT_SET_NO":999,"REV_AT_EPOCH":2108,"BSTAR":0.00071963644,"MEAN_MOTION_DOT":0.00021017,"MEAN_MOTION_DDOT":0},{"OBJECT_NAME":"TRANSPORTER-1 OBJECT L","OBJECT_ID":"2021-006L","EPOCH":"2026-03-09T22:38:42.795168","MEAN_MOTION":15.33192932,"ECCENTRICITY":0.00114726,"INCLINATION":97.2368,"RA_OF_ASC_NODE":117.6447,"ARG_OF_PERICENTER":180.5165,"MEAN_ANOMALY":179.6068,"EPHEMERIS_TYPE":0,"CLASSIFICATION_TYPE":"U","NORAD_CAT_ID":47423,"ELEMENT_SET_NO":999,"REV_AT_EPOCH":28445,"BSTAR":0.00025636794,"MEAN_MOTION_DOT":8.162e-5,"MEAN_MOTION_DDOT":0}]
